BEESAT-4                
1 41619U 16040W   21195.35154367  .00001632  00000-0  66859-4 0  9994
2 41619  97.2679 250.6882 0009240 229.7472 130.2959 15.25659983269113
CAS-2T & KS-1Q          
1 41847U 16066G   21195.12184396  .00000145  00000-0  31400-4 0  9997
2 41847  98.5995 254.3620 0366063 140.6701 222.1694 14.38209253245718
NAYIF-1 (EO-88)         
1 42017U 17008BX  21195.14412901  .00001996  00000-0  74944-4 0  9997
2 42017  97.3146 262.2666 0006502  29.8317 330.3292 15.28339497245339
ZHUHAI-1 02 (CAS-4B)    
1 42759U 17034B   21195.95116465  .00000421  00000-0  38623-4 0  9990
2 42759  43.0185  29.9012 0009777 332.5523 174.5716 15.10264938225308
ZHUHAI-1 01 (CAS-4A)    
1 42761U 17034D   21195.94011343  .00000433  00000-0  39241-4 0  9991
2 42761  43.0181  28.9969 0010089 332.9236 171.8316 15.10352696225305
MAX VALIER SAT          
1 42778U 17036P   21195.36142641  .00001131  00000-0  49853-4 0  9999
2 42778  97.2530 243.0886 0013663  83.2470 277.0322 15.23706585225385
RADFXSAT (FOX-1B)       
1 43017U 17073E   21195.31697411  .00000291  00000-0  28178-4 0  9995
2 43017  97.7046  98.2407 0253920 212.4758 146.0614 14.79598049197094
FOX-1D (AO-92)          
1 43137U 18004AC  21195.88579436  .00001264  00000-0  52934-4 0  9999
2 43137  97.4058 269.6374 0010381 111.4145 248.8202 15.25364485194834
DIWATA-2B               
1 43678U 18084H   21194.94861499 -.00000235  00000-0 -17541-4 0  9990
2 43678  97.9274 320.3669 0009405 331.2906  28.7777 14.91761517147382
ES'HAIL 2               
1 43700U 18090A   21195.33715049  .00000148  00000-0  00000-0 0  9995
2 43700   0.0158  35.1338 0001517 111.2735 293.2118  1.00272438  9638
FOX-1CLIFF (AO-95)      
1 43770U 18099N   21195.41700864  .00000557  00000-0  55620-4 0  9995
2 43770  97.6641 265.0076 0013607 333.5522  26.5003 14.95357621142480
ITASAT 1                
1 43786U 18099AE  21195.73237975  .00000484  00000-0  48616-4 0  9991
2 43786  97.6657 266.0132 0014047 324.1219  35.9057 14.95644350142566
JY1SAT (JO-97)          
1 43803U 18099AX  21195.15655328  .00000417  00000-0  42365-4 0  9994
2 43803  97.6623 265.1984 0014052 326.8797  33.1543 14.95901134142487
UWE-4                   
1 43880U 18111E   21195.72388021 -.00000138  00000-0 -69477-5 0  9996
2 43880  97.6849 102.9910 0012809  18.8215 341.3477 14.96904175137168
NEXUS (FO-99)           
1 43937U 19003F   21195.40685184  .00001347  00000-0  54997-4 0  9996
2 43937  97.1742 237.5078 0021231 277.4712  82.4115 15.25874222138370
PSAT2 (NO-104)          
1 44354U 19036R   21195.46449945  .00015338  00000-0  19910-3 0  9995
2 44354  28.5300 306.8518 0321510 209.0185 149.2182 15.14510496113073
BRICSAT2 (NO-103)       
1 44355U 19036S   21195.46029162  .00027091 -62305-5  26989-3 0  9996
2 44355  28.5276 257.2573 0254632 289.9059  67.4274 15.31939272113577
JAISAT-1                
1 44419U 19038F   21195.54098073  .00000802  00000-0  47930-4 0  9994
2 44419  97.5899 160.1456 0019893 215.3443 144.6470 15.13846524111891
DUCHIFAT-3              
1 44854U 19089C   21195.69478410  .00000346  00000-0  34016-4 0  9990
2 44854  36.9675 299.5312 0009171 352.6714   7.3885 14.99536888 87197
CAS-6 (TO-108)          
1 44881U 19093C   21194.87628034  .00000067  00000-0  15277-4 0  9991
2 44881  97.9238 273.4167 0014305 202.5249 157.5328 14.81462665 84648
RS-44 & BREEZE-KM R/B   
1 44909U 19096E   21195.20943234  .00000030  00000-0  73106-4 0  9990
2 44909  82.5214  95.0383 0218185  30.8028 330.5667 12.79710830 72247
ORBITAL FACTORY 2 (OF-2)
1 45113U 19071C   21195.40822824  .00002262  00000-0  74454-4 0  9990
2 45113  51.6418 266.8012 0012195  32.4994 327.6738 15.35965578 81318
HUSKYSAT-1 (HO-107)     
1 45119U 19071J   21195.41928113  .00001676  00000-0  58003-4 0  9995
2 45119  51.6414 266.1192 0011566  29.3931 330.7700 15.35979062 81316
BY70-2                  
1 45857U 20042B   21194.92923672  .00001288  00000-0  18938-3 0  9995
2 45857  97.9837 270.4021 0012646 124.7543 235.4853 14.77107449 55458
SALSAT                  
1 46495U 20068K   21195.54854585  .00000222  00000-0  20808-4 0  9994
2 46495  97.6956 132.8850 0016493 347.8230  12.2592 15.03492646 43401
BY70-3                  
1 46839U 20079N   21195.98543029  .00002501  00000-0  78615-4 0  9995
2 46839  97.2395 269.2962 0008883 104.5197  20.5610 15.33875404 38428
RADFXSAT-2 (AO-109)     
1 47311U 21002C   21195.42932023  .00000496  00000-0  33516-4 0  9995
2 47311  60.6842 190.2102 0039416  62.3849 298.1230 15.21735801 26976
UVSQ-SAT                
1 47438U 21006AB  21195.75864998  .00000676  00000-0  41678-4 0  9998
2 47438  97.4856 256.4923 0012861  11.5408 348.6115 15.13204229 26189
DIY-1 (ARDUIQUBE)       
1 47963U 21022AH  21195.24756577  .00001214  00000-0  84137-4 0  9992
2 47963  97.5566  97.1070 0018337 209.3741 150.6457 15.07374298 15933
